0 NIMBUS 2 DEB
1 28200U 66040N   13282.68193605 -.00000233  00000-0 -40978-3 0  3278
2 28200 099.7422 178.6539 0041252 245.2862 169.3963 13.29596496516912
0 NIMBUS 2 DEB
1 28200U 66040N   13283.64867292 -.00000168  00000-0  10000-3 0  3296
2 28200 099.7354 179.5633 0044584 245.5298 114.1732 13.29595854517042
0 NIMBUS 2 DEB
1 28200U 66040N   13285.18605863 -.00000091  00000-0 -10644-3 0  3280
2 28200 099.7421 181.0159 0041099 239.3072 275.4939 13.29596571517246
0 NIMBUS 2 DEB
1 28200U 66040N   13287.64322657  .00000038  00000-0  17097-3 0  3299
2 28200 099.7420 183.3348 0040123 232.3799 157.9092 13.29598217517575
0 NIMBUS 2 DEB
1 28200U 66040N   13290.64678515 -.00000089  00000-0  10000-3 0  3317
2 28200 099.7380 186.1679 0041696 226.6760 133.1433 13.29598800517975
0 NIMBUS 2 DEB
1 28200U 66040N   13290.66070666  .00000281  00000-0  69101-3 0  3300
2 28200 099.7419 186.1824 0039089 223.7173 202.7082 13.29602238517973
0 NIMBUS 2 DEB
1 28200U 66040N   13292.68454661  .00000353  00000-0  84560-3 0  3312
2 28200 099.7419 188.0922 0038504 217.7779 171.0588 13.29603808518243
0 NIMBUS 2 DEB
1 28200U 66040N   13295.19639961  .00000450  00000-0  10550-2 0  3325
2 28200 099.7421 190.4626 0037814 210.1733 315.8370 13.29607070518572
